SL-14 R/B               
1 17567U 87024B   26170.97788487  .00000289  00000+0  30052-4 0  9993
2 17567  82.5279 356.6271 0016725 283.1537  76.7813 14.86214627103323
COSMOS 1833             
1 17589U 87027A   26171.29383227  .00000337  00000+0  20577-3 0  9993
2 17589  70.9187 110.3381 0022894  49.9325 310.3799 14.13052434 24812
SL-16 R/B               
1 17590U 87027B   26171.39240878 -.00000122  00000+0 -36749-4 0  9993
2 17590  71.0032  60.0747 0006617 308.6931  51.3600 14.17171037 29896
SL-14 R/B               
1 17912U 87038B   26171.36226936  .00000252  00000+0  26370-4 0  9990
2 17912  82.5005 200.0816 0019181 180.5956 179.5241 14.85446646 94474
COSMOS 1844             
1 17973U 87041A   26171.43067367 -.00000089  00000+0 -20711-4 0  9993
2 17973  70.8964 177.4655 0032728 230.8045 129.0169 14.14567297 18117
SL-14 R/B               
1 18153U 87055B   26171.32117712  .00000286  00000+0  29971-4 0  9991
2 18153  82.4993 252.2749 0021488  37.8057 322.4664 14.85712887 85178
COSMOS 1867             
1 18187U 87060A   26170.99752469 -.00000052  00000+0  17989-4 0  9998
2 18187  65.0114  20.1880 0016587 282.1795  77.7432 14.31515983 34584
SL-14 R/B               
1 18749U 88001B   26171.25604897  .00000307  00000+0  32615-4 0  9994
2 18749  82.5134  98.8867 0016455 258.4005 101.5364 14.85611338 57254
COSMOS 1933             
1 18958U 88020A   26171.39774882  .00002844  00000+0  13551-3 0  9999
2 18958  82.5126 149.2557 0003875 174.6277 185.4999 15.18731354 65810
SL-3 R/B                
1 19046U 88032B   26171.40127054  .00002988  00000+0  13757-3 0  9993
2 19046  97.5259 154.4385 0024025 233.0446 126.8589 15.20859491 67718
SL-16 R/B               
1 19120U 88039B   26171.43258006  .00000124  00000+0  81482-4 0  9999
2 19120  71.0133 211.2959 0022053 188.2859 171.7905 14.19630175972962
COSMOS 1953             
1 19210U 88050A   26171.41963748  .00006304  00000+0  21544-3 0  9994
2 19210  82.5073  54.7747 0012301 116.3180 243.9325 15.30015132 53480
SL-8 R/B                
1 19257U 88053B   26171.41243301  .00000133  00000+0  51564-4 0  9994
2 19257  74.0482 283.1120 0019174  77.2470 345.2112 14.38968456991378
